NORAD_CAT_ID,OBJECT_NAME,OBJECT_TYPE,EPOCH,MEAN_MOTION,ECCENTRICITY,INCLINATION,RA_OF_ASC_NODE,ARG_OF_PERICENTER,MEAN_ANOMALY,BSTAR,MEAN_MOTION_DOT,MEAN_MOTION_DDOT,TLE_LINE0,TLE_LINE1,TLE_LINE2,SEMIMAJOR_AXIS,PERIOD,APOGEE,PERIGEE,DECAYED
52616.0,STARLINK-4015,PAYLOAD,2023-08-19 18:15:50,15.08831736,0.0001383,53.2168,137.2003,92.9622,267.1528,-5.9925e-05,-1.241e-05,0.0,0 STARLINK-4015,1 52616U 22052U   23231.76100401 -.00001241  00000-0 -59925-4 0  9995,2 52616  53.2168 137.2003 0001383  92.9622 267.1528 15.08831736 70525,6917.906,95.438,540.727,538.814,0.0
52616.0,STARLINK-4015,PAYLOAD,2023-08-20 03:48:09,15.08837474,0.0001399,53.217,135.4173,90.2273,269.888,-3.0501e-05,-7.73e-06,0.0,0 STARLINK-4015,1 52616U 22052U   23232.15844068 -.00000773  00000-0 -30501-4 0  9991,2 52616  53.2170 135.4173 0001399  90.2273 269.8880 15.08837474 70587,6917.888,95.438,540.721,538.785,0.0
52616.0,STARLINK-4015,PAYLOAD,2023-08-21 00:28:09,15.08847233,0.0001279,53.2166,131.5523,90.742,269.3718,0.0001408,1.954e-05,0.0,0 STARLINK-4015,1 52616U 22052U   23233.01955206  .00001954  00000-0  14080-3 0  9997,2 52616  53.2166 131.5523 0001279  90.7420 269.3718 15.08847233 70718,6917.858,95.437,540.608,538.838,0.0
52616.0,STARLINK-4015,PAYLOAD,2023-08-22 01:54:20,15.088365,0.0001308,53.2168,126.7945,82.9772,277.1369,9.886e-05,1.286e-05,0.0,0 STARLINK-4015,1 52616U 22052U   23234.07940595  .00001286  00000-0  98860-4 0  9996,2 52616  53.2168 126.7945 0001308  82.9772 277.1369 15.08836500 70871,6917.891,95.438,540.661,538.851,0.0
52616.0,STARLINK-4015,PAYLOAD,2023-08-24 01:35:54,15.08841276,0.000145,53.2165,117.8716,78.1831,281.9324,0.00015902,2.244e-05,0.0,0 STARLINK-4015,1 52616U 22052U   23236.06660651  .00002244  00000-0  15902-3 0  9999,2 52616  53.2165 117.8716 0001450  78.1831 281.9324 15.08841276 70809,6917.876,95.437,540.745,538.738,0.0
52616.0,STARLINK-4015,PAYLOAD,2023-08-25 01:26:41,15.08844145,0.000144,53.2166,113.4115,84.9664,275.1492,0.0003836,5.823e-05,0.0,0 STARLINK-4015,1 52616U 22052U   23237.06020408  .00005823  00000-0  38360-3 0  9999,2 52616  53.2166 113.4115 0001440  84.9664 275.1492 15.08844145 70958,6917.868,95.437,540.729,538.737,0.0
52616.0,STARLINK-4015,PAYLOAD,2023-08-25 18:55:56,15.0884203,0.0001401,53.2166,110.1419,76.5383,283.5765,6.3823e-06,-1.86e-06,0.0,0 STARLINK-4015,1 52616U 22052U   23237.78884411 -.00000186  00000-0  63823-5 0  9992,2 52616  53.2166 110.1419 0001401  76.5383 283.5765 15.08842030 71432,6917.874,95.437,540.708,538.77,0.0
52616.0,STARLINK-4015,PAYLOAD,2023-08-25 20:31:19,15.08843609,0.0001544,53.2174,109.8453,70.3765,289.7394,3.4979e-05,2.69e-06,0.0,0 STARLINK-4015,1 52616U 22052U   23237.85508533  .00000269  00000-0  34979-4 0  9998,2 52616  53.2174 109.8453 0001544  70.3765 289.7394 15.08843609 71077,6917.869,95.437,540.802,538.666,0.0
52616.0,STARLINK-4015,PAYLOAD,2023-08-26 01:17:28,15.08846296,0.0001522,53.2174,108.9515,78.7566,281.3597,5.9665e-05,6.62e-06,0.0,0 STARLINK-4015,1 52616U 22052U   23238.05380132  .00000662  00000-0  59665-4 0  9990,2 52616  53.2174 108.9515 0001522  78.7566 281.3597 15.08846296 71105,6917.861,95.437,540.779,538.673,0.0
52616.0,STARLINK-4015,PAYLOAD,2023-08-26 20:22:06,15.08835031,0.0001573,53.2172,105.3817,91.3804,268.7369,3.3819e-05,2.5e-06,0.0,0 STARLINK-4015,1 52616U 22052U   23238.84868740  .00000250  00000-0  33819-4 0  9999,2 52616  53.2172 105.3817 0001573  91.3804 268.7369 15.08835031 71225,6917.896,95.438,540.849,538.672,0.0
52616.0,STARLINK-4015,PAYLOAD,2023-08-26 23:32:52,15.08837724,0.0001595,53.2174,104.7866,93.5389,266.5786,4.7737e-05,4.72e-06,0.0,0 STARLINK-4015,1 52616U 22052U   23238.98116532  .00000472  00000-0  47737-4 0  9999,2 52616  53.2174 104.7866 0001595  93.5389 266.5786 15.08837724 71613,6917.887,95.438,540.856,538.649,0.0
52616.0,STARLINK-4015,PAYLOAD,2023-08-27 20:12:53,15.08837831,0.0001582,53.2171,100.9209,99.8789,260.2382,4.4595e-05,4.22e-06,0.0,0 STARLINK-4015,1 52616U 22052U   23239.84228676  .00000422  00000-0  44595-4 0  9992,2 52616  53.2171 100.9209 0001582  99.8789 260.2382 15.08837831 71373,6917.887,95.438,540.846,538.658,0.0
52616.0,STARLINK-4015,PAYLOAD,2023-08-28 00:59:02,15.08838912,0.0001575,53.2172,100.0287,99.5895,260.5275,5.0308e-05,5.13e-06,0.0,0 STARLINK-4015,1 52616U 22052U   23240.04100614  .00000513  00000-0  50308-4 0  9997,2 52616  53.2172 100.0287 0001575  99.5895 260.5275 15.08838912 71777,6917.884,95.438,540.838,538.659,0.0
52616.0,STARLINK-4015,PAYLOAD,2023-08-28 21:39:03,15.08842539,0.0001406,53.2153,96.1646,108.2724,251.8421,-1.7736e-05,-5.7e-06,0.0,0 STARLINK-4015,1 52616U 22052U   23240.90212925 -.00000570  00000-0 -17736-4 0  9994,2 52616  53.2153  96.1646 0001406 108.2724 251.8421 15.08842539 71532,6917.873,95.437,540.71,538.765,0.0
52616.0,STARLINK-4015,PAYLOAD,2023-08-29 07:11:22,15.08837991,0.0001261,53.2154,94.3805,99.4922,260.6212,5.5154e-05,5.9e-06,0.0,0 STARLINK-4015,1 52616U 22052U   23241.29956942  .00000590  00000-0  55154-4 0  9997,2 52616  53.2154  94.3805 0001261  99.4922 260.6212 15.08837991 71969,6917.887,95.438,540.624,538.879,0.0
52616.0,STARLINK-4015,PAYLOAD,2023-08-29 19:54:28,15.08843149,0.000123,53.2161,92.0021,88.6343,271.479,-9.3803e-05,-1.781e-05,0.0,0 STARLINK-4015,1 52616U 22052U   23241.82949325 -.00001781  00000-0 -93803-4 0  9991,2 52616  53.2161  92.0021 0001230  88.6343 271.4790 15.08843149 71676,6917.871,95.437,540.587,538.885,0.0
52616.0,STARLINK-4015,PAYLOAD,2023-08-30 07:02:09,15.08842239,0.0001326,53.2168,89.9213,98.9383,261.1759,3.8197e-05,3.2e-06,0.0,0 STARLINK-4015,1 52616U 22052U   23242.29317029  .00000320  00000-0  38197-4 0  9994,2 52616  53.2168  89.9213 0001326  98.9383 261.1759 15.08842239 71743,6917.874,95.437,540.656,538.821,0.0
52616.0,STARLINK-4015,PAYLOAD,2023-08-30 22:56:01,15.08827343,0.0001383,53.2175,86.946,91.137,268.978,0.00037564,5.693e-05,0.0,0 STARLINK-4015,1 52616U 22052U   23242.95556975  .00005693  00000-0  37564-3 0  9996,2 52616  53.2175  86.9460 0001383  91.1370 268.9780 15.08827343 72217,6917.919,95.438,540.741,538.827,0.0
52616.0,STARLINK-4015,PAYLOAD,2023-09-01 06:43:43,15.08841038,0.0001045,53.2167,80.9996,89.8848,270.2263,3.5995e-05,2.85e-06,0.0,0 STARLINK-4015,1 52616U 22052U   23244.28037025  .00000285  00000-0  35995-4 0  9993,2 52616  53.2167  80.9996 0001045  89.8848 270.2263 15.08841038 72416,6917.877,95.437,540.465,539.019,0.0
52616.0,STARLINK-4015,PAYLOAD,2023-09-01 13:05:16,15.08842883,0.0001121,53.2161,79.811,85.4449,274.6671,-2.6641e-07,-2.92e-06,0.0,0 STARLINK-4015,1 52616U 22052U   23244.54533021 -.00000292  00000-0 -26641-6 0  9999,2 52616  53.2161  79.8110 0001121  85.4449 274.6671 15.08842883 72082,6917.872,95.437,540.512,538.961,0.0
52616.0,STARLINK-4015,PAYLOAD,2023-09-02 12:56:03,15.08837556,0.0001701,53.2157,75.3512,75.3891,284.729,4.4396e-05,4.19e-06,0.0,0 STARLINK-4015,1 52616U 22052U   23245.53893343  .00000419  00000-0  44396-4 0  9999,2 52616  53.2157  75.3512 0001701  75.3891 284.7290 15.08837556 72234,6917.888,95.438,540.93,538.576,0.0
52616.0,STARLINK-4015,PAYLOAD,2023-09-02 16:06:50,15.08835839,0.0001452,53.2157,74.7556,81.2212,278.8944,3.5591e-05,2.78e-06,0.0,0 STARLINK-4015,1 52616U 22052U   23245.67141401  .00000278  00000-0  35591-4 0  9995,2 52616  53.2157  74.7556 0001452  81.2212 278.8944 15.08835839 72626,6917.893,95.438,540.763,538.754,0.0
52616.0,STARLINK-4015,PAYLOAD,2023-09-02 20:52:59,15.08827618,0.0001382,53.2172,73.8622,95.0751,265.0398,0.0002261,3.311e-05,0.0,0 STARLINK-4015,1 52616U 22052U   23245.87013198  .00003311  00000-0  22610-3 0  9996,2 52616  53.2172  73.8622 0001382  95.0751 265.0398 15.08827618 72289,6917.918,95.438,540.739,538.827,0.0
52616.0,STARLINK-4015,PAYLOAD,2023-09-03 19:08:22,15.08847831,0.0001354,53.2171,69.6994,89.214,270.9007,8.2659e-05,1.028e-05,0.0,0 STARLINK-4015,1 52616U 22052U   23246.79748345  .00001028  00000-0  82659-4 0  9990,2 52616  53.2171  69.6994 0001354  89.2140 270.9007 15.08847831 72796,6917.856,95.437,540.658,538.785,0.0
52616.0,STARLINK-4015,PAYLOAD,2023-09-03 22:19:08,15.08855134,0.0001352,53.2192,69.1011,93.1107,267.004,8.298e-05,1.033e-05,0.0,0 STARLINK-4015,1 52616U 22052U   23246.92995743  .00001033  00000-0  82980-4 0  9994,2 52616  53.2192  69.1011 0001352  93.1107 267.0040 15.08855134 72811,6917.834,95.437,540.634,538.764,0.0
52616.0,STARLINK-4015,PAYLOAD,2023-09-04 12:37:38,15.08831157,0.000154,53.2173,66.4273,90.673,269.4439,-8.0406e-06,-4.16e-06,0.0,0 STARLINK-4015,1 52616U 22052U   23247.52613800 -.00000416  00000-0 -80406-5 0  9990,2 52616  53.2173  66.4273 0001540  90.6730 269.4439 15.08831157 72539,6917.907,95.438,540.838,538.707,0.0
52616.0,STARLINK-4015,PAYLOAD,2023-09-04 18:59:11,15.0882844,0.0001533,53.2172,65.2387,87.5498,272.5669,-3.6375e-05,-8.67e-06,0.0,0 STARLINK-4015,1 52616U 22052U   23247.79110220 -.00000867  00000-0 -36375-4 0  9992,2 52616  53.2172  65.2387 0001533  87.5498 272.5669 15.08828440 72945,6917.916,95.438,540.841,538.72,0.0
52616.0,STARLINK-4015,PAYLOAD,2023-09-05 04:31:29,15.08832425,0.0001473,53.2188,63.4537,82.2012,277.9148,-3.837e-06,-3.49e-06,0.0,0 STARLINK-4015,1 52616U 22052U   23248.18854154 -.00000349  00000-0 -38370-5 0  9990,2 52616  53.2188  63.4537 0001473  82.2012 277.9148 15.08832425 72631,6917.904,95.438,540.788,538.75,0.0
52616.0,STARLINK-4015,PAYLOAD,2023-09-05 18:49:57,15.08849272,0.0001367,53.2174,60.7773,81.2533,278.8613,-5.8494e-05,-1.219e-05,0.0,0 STARLINK-4015,1 52616U 22052U   23248.78469344 -.00001219  00000-0 -58494-4 0  9994,2 52616  53.2174  60.7773 0001367  81.2533 278.8613 15.08849272 73093,6917.852,95.437,540.663,538.771,0.0
52616.0,STARLINK-4015,PAYLOAD,2023-09-06 04:22:16,15.08848148,0.0001395,53.2174,58.9925,80.5333,279.5817,-3.0413e-05,-7.72e-06,0.0,0 STARLINK-4015,1 52616U 22052U   23249.18213289 -.00000772  00000-0 -30413-4 0  9998,2 52616  53.2174  58.9925 0001395  80.5333 279.5817 15.08848148 72782,6917.855,95.437,540.686,538.755,0.0
